[{"OBJECT_NAME":"SPIP","OBJECT_ID":"2023-174AU","EPOCH":"2026-03-09T22:52:46.383168","MEAN_MOTION":15.26695413,"ECCENTRICITY":0.00100427,"INCLINATION":97.3901,"RA_OF_ASC_NODE":146.4534,"ARG_OF_PERICENTER":168.1112,"MEAN_ANOMALY":192.0366,"EPHEMERIS_TYPE":0,"CLASSIFICATION_TYPE":"U","NORAD_CAT_ID":58298,"ELEMENT_SET_NO":999,"REV_AT_EPOCH":12963,"BSTAR":0.00025731582,"MEAN_MOTION_DOT":6.692e-5,"MEAN_MOTION_DDOT":0},{"OBJECT_NAME":"STARLINK-35987","OBJECT_ID":"2025-281N","EPOCH":"2026-03-09T03:23:11.280192","MEAN_MOTION":15.2755869,"ECCENTRICITY":0.00017664,"INCLINATION":43.003,"RA_OF_ASC_NODE":346.3973,"ARG_OF_PERICENTER":282.2881,"MEAN_ANOMALY":77.7773,"EPHEMERIS_TYPE":0,"CLASSIFICATION_TYPE":"U","NORAD_CAT_ID":66860,"ELEMENT_SET_NO":999,"REV_AT_EPOCH":1610,"BSTAR":0.0013311338,"MEAN_MOTION_DOT":0.00036526,"MEAN_MOTION_DDOT":0}]
